[{"OBJECT_NAME":"SCD 1","OBJECT_ID":"1993-009B","EPOCH":"2026-03-09T10:27:49.694112","MEAN_MOTION":14.46067729,"ECCENTRICITY":0.00420469,"INCLINATION":24.9688,"RA_OF_ASC_NODE":103.4557,"ARG_OF_PERICENTER":161.8893,"MEAN_ANOMALY":221.4416,"EPHEMERIS_TYPE":0,"CLASSIFICATION_TYPE":"U","NORAD_CAT_ID":22490,"ELEMENT_SET_NO":999,"REV_AT_EPOCH":74666,"BSTAR":9.424806e-5,"MEAN_MOTION_DOT":5.32e-6,"MEAN_MOTION_DDOT":0},{"OBJECT_NAME":"ORBCOMM FM16","OBJECT_ID":"1998-046E","EPOCH":"2026-03-09T22:48:20.580480","MEAN_MOTION":14.39836003,"ECCENTRICITY":0.00033191,"INCLINATION":44.9952,"RA_OF_ASC_NODE":349.8882,"ARG_OF_PERICENTER":215.0522,"MEAN_ANOMALY":145.0109,"EPHEMERIS_TYPE":0,"CLASSIFICATION_TYPE":"U","NORAD_CAT_ID":25417,"ELEMENT_SET_NO":999,"REV_AT_EPOCH":44254,"BSTAR":0.00052781623,"MEAN_MOTION_DOT":1.53e-5,"MEAN_MOTION_DDOT":0}]
